GAOFEN-11 01            
1 43585U 18063A   26157.62067319  .00024237  00000+0  36241-3 0  9994
2 43585  97.1293 224.5318 0004385  34.1523 326.0013 15.54991125438700
ICESAT-2                
1 43613U 18070A   26157.61280958  .00012778  00000+0  46440-3 0  9998
2 43613  92.0071 288.1236 0005148 122.5402 237.6345 15.28227242430846
HYSIS                   
1 43719U 18096A   26157.58741400  .00001131  00000+0  16142-3 0  9990
2 43719  97.9838 224.4183 0001588 112.1323 248.0056 14.78673699405856
KAZSTSAT                
1 43783U 18099AB  26157.35636168  .00001422  00000+0  11930-3 0  9996
2 43783  97.4264 189.7778 0007652  97.8633 262.3460 14.99837215409681
SAUDISAT 5A             
1 43831U 18102A   26157.62132304  .00006483  00000+0  24014-3 0  9997
2 43831  97.3067 219.4065 0010190 162.4726 197.6868 15.27938206414062
SAUDISAT 5B             
1 43833U 18102C   26157.64196225  .00006398  00000+0  23511-3 0  9999
2 43833  97.3175 222.4773 0010816 165.1099 195.0461 15.28201078414187
GAOFEN-10R              
1 44622U 19066A   26157.62852701  .00001322  00000+0  16923-3 0  9993
2 44622  98.0497 111.1313 0005921 157.1762 202.9716 14.83037684360813
CARTOSAT-3              
1 44804U 19081A   26157.61904610  .00005817  00000+0  27905-3 0  9993
2 44804  97.4307 219.6556 0012148 183.2511 176.8647 15.19208053361860
GAOFEN-12 01            
1 44819U 19082A   26157.60356184  .00000458  00000+0  66598-4 0  9994
2 44819  97.8101 164.2624 0002495  82.7900 277.3596 14.80449953352528
CSG-1                   
1 44873U 19092A   26157.65472046  .00000487  00000+0  67770-4 0  9991
2 44873  97.8887 341.4099 0001452  91.0872 269.0508 14.82156091349917
NEMO-HD                 
1 46277U 20061F   26157.56917892  .00013535  00000+0  29490-3 0  9996
2 46277  97.1919 219.6307 0002633  92.4625 267.6925 15.44378491320349
SENTINEL-6A             
1 46984U 20086A   26157.38908027 -.00000048  00000+0  58284-4 0  9998
2 46984  66.0384 157.4803 0007958 270.2859  89.7244 12.80929701258941
CAS500-1                
1 47932U 21022A   26157.59700838  .00008555  00000+0  39768-3 0  9991
2 47932  97.3907  53.0638 0004349 344.0213  16.0885 15.20210354289150
GAOFEN-12 02            
1 48079U 21026A   26157.61348997  .00000436  00000+0  64127-4 0  9993
2 48079  97.9920 155.8375 0003315 269.5223  90.5609 14.80287999280197
PLEIADES NEO 3          
1 48268U 21034A   26156.57002736  .00000281  00000+0  42291-4 0  9990
2 48268  97.8935 231.5042 0001394  99.1938 260.9433 14.81673923275931
PLEIADES NEO 4          
1 49070U 21073E   26157.14404851  .00000450  00000+0  63795-4 0  9993
2 49070  97.8928 232.0648 0001391  84.3469 275.7903 14.81670310259738
LANDSAT 9               
1 49260U 21088A   26157.48399439  .00000392  00000+0  97161-4 0  9991
2 49260  98.2278 227.7906 0001410  88.9377 271.1983 14.57103615249447
CSG-2                   
1 51444U 22008A   26157.35089398  .00000865  00000+0  11522-3 0  9998
2 51444  97.8885 341.1056 0001500  82.8328 277.3056 14.82168009234987
GAOFEN-12 03            
1 52912U 22069A   26157.64148253  .00000937  00000+0  13057-3 0  9999
2 52912  97.8288  45.7767 0001570 111.8551 248.2828 14.80017095213054
SWOT                    
1 54754U 22173A   26157.55592202 -.00000004  00000+0 -10709-5 0  9998
2 54754  77.6112  49.6618 0000179  96.6163 263.5009 14.00168312177661
GAOFEN-12 04            
1 57654U 23123A   26157.65954571  .00001165  00000+0  16011-3 0  9995
2 57654  97.9128  75.8284 0001780  87.8076 272.3340 14.80208713151070
PARS 1                  
1 59065U 24039Q   26157.63220887  .00013272  00000+0  27793-3 0  9995
2 59065  97.4823 138.2218 0010773 143.3378 216.8610 15.45505477127010
RESURS-P 4              
1 59371U 24061A   26157.61728556  .00003683  00000+0  12143-3 0  9992
2 59371  97.2748 105.7009 0001367 131.4478 228.6882 15.32070660122147
LEGION 1                
1 59625U 24081A   26157.53865364  .00004467  00000+0  23187-3 0  9997
2 59625  97.5013 235.5098 0010472  52.1763 308.0417 15.16593565115921
LEGION 2                
1 59626U 24081B   26157.56849345  .00004914  00000+0  25476-3 0  9992
2 59626  97.5013 235.6373 0011808  21.0242 339.1474 15.16573083115932
ALOS-4 (DAICHI-4)       
1 60182U 24123A   26157.60778035  .00001651  00000+0  22796-3 0  9997
2 60182  97.9239 254.9300 0001686  98.7412 261.3991 14.79474588104310
LEGION 3                
1 60452U 24146A   26157.52193598  .00004995  00000+0  26930-3 0  9996
2 60452  45.0007  87.7511 0006800 102.0567 258.1074 15.15955914100406
LEGION 4                
1 60453U 24146B   26157.52497452  .00004326  00000+0  23476-3 0  9993
2 60453  44.9998 179.6458 0013997 253.1251 106.8092 15.15958172 99256
SENTINEL-2C             
1 60989U 24157A   26157.47323528  .00000125  00000+0  64312-4 0  9993
2 60989  98.5692 232.4064 0001206  78.6947 281.4372 14.30814937 91450
IONOSFERA-M 1           
1 61735U 24199A   26157.57456915  .00000062  00000+0  47345-4 0  9994
2 61735  98.7186  30.8582 0001617 124.6905 235.4426 14.22752384126194
