OBJECT_NAME,OBJECT_ID,EPOCH,MEAN_MOTION,ECCENTRICITY,INCLINATION,RA_OF_ASC_NODE,ARG_OF_PERICENTER,MEAN_ANOMALY,EPHEMERIS_TYPE,CLASSIFICATION_TYPE,NORAD_CAT_ID,ELEMENT_SET_NO,REV_AT_EPOCH,BSTAR,MEAN_MOTION_DOT,MEAN_MOTION_DDOT
GAOFEN-11 01,2018-063A,2026-06-06T14:53:46.163616,15.54991125,.00043856,97.1293,224.5318,34.1523,326.0013,0,U,43585,999,43870,.36241239E-3,.24237E-3,0
ICESAT-2,2018-070A,2026-06-06T14:42:26.747712,15.28227242,.0005148,92.0071,288.1236,122.5402,237.6345,0,U,43613,999,43084,.46439524E-3,.12778E-3,0
HYSIS,2018-096A,2026-06-06T14:05:52.569600,14.78673699,.00015885,97.9838,224.4183,112.1323,248.0056,0,U,43719,999,40585,.16141689E-3,.1131E-4,0
KAZSTSAT,2018-099AB,2026-06-06T08:33:09.649152,14.99837215,.00076525,97.4264,189.7778,97.8633,262.3460,0,U,43783,999,40968,.11930117E-3,.1422E-4,0
SAUDISAT 5A,2018-102A,2026-06-06T14:54:42.310656,15.27938206,.001019,97.3067,219.4065,162.4726,197.6868,0,U,43831,999,41406,.24013508E-3,.6483E-4,0
SAUDISAT 5B,2018-102C,2026-06-06T15:24:25.538400,15.28201078,.00108162,97.3175,222.4773,165.1099,195.0461,0,U,43833,999,41418,.23510635E-3,.6398E-4,0
GAOFEN-10R,2019-066A,2026-06-06T15:05:04.733664,14.83037684,.00059218,98.0497,111.1313,157.1762,202.9716,0,U,44622,999,36081,.16922929E-3,.1322E-4,0
CARTOSAT-3,2019-081A,2026-06-06T14:51:25.583040,15.19208053,.00121484,97.4307,219.6556,183.2511,176.8647,0,U,44804,999,36186,.27905371E-3,.5817E-4,0
GAOFEN-12 01,2019-082A,2026-06-06T14:29:07.742976,14.80449953,.00024958,97.8101,164.2624,82.7900,277.3596,0,U,44819,999,35252,.66597794E-4,.458E-5,0
CSG-1,2019-092A,2026-06-06T15:42:47.847744,14.82156091,.00014529,97.8887,341.4099,91.0872,269.0508,0,U,44873,999,34991,.6776979E-4,.487E-5,0
NEMO-HD,2020-061F,2026-06-06T13:39:37.058688,15.44378491,.00026332,97.1919,219.6307,92.4625,267.6925,0,U,46277,999,32034,.29490054E-3,.13535E-3,0
SENTINEL-6A,2020-086A,2026-06-06T09:20:16.535328,12.80929701,.00079585,66.0384,157.4803,270.2859,89.7244,0,U,46984,999,25894,.58283553E-4,-.48E-6,0
CAS500-1,2021-022A,2026-06-06T14:19:41.524032,15.20210354,.00043495,97.3907,53.0638,344.0213,16.0885,0,U,47932,999,28915,.39768121E-3,.8555E-4,0
GAOFEN-12 02,2021-026A,2026-06-06T14:43:25.533408,14.80287999,.00033151,97.9920,155.8375,269.5223,90.5609,0,U,48079,999,28019,.6412744E-4,.436E-5,0
PLEIADES NEO 3,2021-034A,2026-06-05T13:40:50.363904,14.81673923,.00013942,97.8935,231.5042,99.1938,260.9433,0,U,48268,999,27593,.42290641E-4,.281E-5,0
PLEIADES NEO 4,2021-073E,2026-06-06T03:27:25.791264,14.81670310,.00013915,97.8928,232.0648,84.3469,275.7903,0,U,49070,999,25973,.63794892E-4,.45E-5,0
LANDSAT 9,2021-088A,2026-06-06T11:36:57.115296,14.57103615,.00014109,98.2278,227.7906,88.9377,271.1983,0,U,49260,999,24944,.97160916E-4,.392E-5,0
CSG-2,2022-008A,2026-06-06T08:25:17.239872,14.82168009,.00015003,97.8885,341.1056,82.8328,277.3056,0,U,51444,999,23498,.11521837E-3,.865E-5,0
GAOFEN-12 03,2022-069A,2026-06-06T15:23:44.090592,14.80017095,.00015708,97.8288,45.7767,111.8551,248.2828,0,U,52912,999,21305,.13056694E-3,.937E-5,0
SWOT,2022-173A,2026-06-06T13:20:31.662528,14.00168312,.00001796,77.6112,49.6618,96.6163,263.5009,0,U,54754,999,17766,-.1070891E-5,-.4E-7,0
GAOFEN-12 04,2023-123A,2026-06-06T15:49:44.749344,14.80208713,.000178,97.9128,75.8284,87.8076,272.3340,0,U,57654,999,15107,.16010591E-3,.1165E-4,0
PARS 1,2024-039Q,2026-06-06T15:10:22.846368,15.45505477,.00107739,97.4823,138.2218,143.3378,216.8610,0,U,59065,999,12701,.27793297E-3,.13272E-3,0
RESURS-P 4,2024-061A,2026-06-06T14:48:53.472384,15.32070660,.00013674,97.2748,105.7009,131.4478,228.6882,0,U,59371,999,12214,.12142895E-3,.3683E-4,0
LEGION 1,2024-081A,2026-06-06T12:55:39.674496,15.16593565,.00104729,97.5013,235.5098,52.1763,308.0417,0,U,59625,999,11592,.23186568E-3,.4467E-4,0
LEGION 2,2024-081B,2026-06-06T13:38:37.834080,15.16573083,.00118086,97.5013,235.6373,21.0242,339.1474,0,U,59626,999,11593,.25475561E-3,.4914E-4,0
ALOS-4 (DAICHI-4),2024-123A,2026-06-06T14:35:12.222240,14.79474588,.0001686,97.9239,254.9300,98.7412,261.3991,0,U,60182,999,10431,.22796348E-3,.1651E-4,0
LEGION 3,2024-146A,2026-06-06T12:31:35.268672,15.15955914,.00068007,45.0007,87.7511,102.0567,258.1074,0,U,60452,999,10040,.26930087E-3,.4995E-4,0
LEGION 4,2024-146B,2026-06-06T12:35:57.798528,15.15958172,.00139974,44.9998,179.6458,253.1251,106.8092,0,U,60453,999,9925,.23476225E-3,.4326E-4,0
SENTINEL-2C,2024-157A,2026-06-06T11:21:27.528192,14.30814937,.00012065,98.5692,232.4064,78.6947,281.4372,0,U,60989,999,9145,.64311706E-4,.125E-5,0
IONOSFERA-M 1,2024-199A,2026-06-06T13:47:22.774560,14.22752384,.00016171,98.7186,30.8582,124.6905,235.4426,0,U,61735,999,12619,.47345112E-4,.62E-6,0
